NORAD_CAT_ID,OBJECT_NAME,OBJECT_TYPE,EPOCH,MEAN_MOTION,ECCENTRICITY,INCLINATION,RA_OF_ASC_NODE,ARG_OF_PERICENTER,MEAN_ANOMALY,BSTAR,MEAN_MOTION_DOT,MEAN_MOTION_DDOT,TLE_LINE0,TLE_LINE1,TLE_LINE2,SEMIMAJOR_AXIS,PERIOD,APOGEE,PERIGEE,DECAYED
56802.0,STARLINK-6070,PAYLOAD,2023-12-03 14:00:01,15.3624291,0.0003424,69.9999,251.3766,262.6677,92.6611,-0.026645,-0.00870173,0.0,0 STARLINK-6070,1 56802U 23078AM  23337.58334491 -.00870173  00000-0 -26645-1 0  9998,2 56802  69.9999 251.3766 0003424 262.6677  92.6611 15.36242910  6041,6835.368,93.735,459.574,454.893,0.0
56802.0,STARLINK-6070,PAYLOAD,2023-12-03 22:00:00,15.35646398,0.0003404,70.0002,250.4862,264.2703,133.6272,-0.029963,-0.00952413,0.0,0 STARLINK-6070,1 56802U 23078AM  23337.91667824 -.00952413  00000-0 -29963-1 0  9998,2 56802  70.0002 250.4862 0003404 264.2703 133.6272 15.35646398 29559,6837.138,93.772,461.331,456.676,0.0
56802.0,STARLINK-6070,PAYLOAD,2023-12-04 14:00:01,15.34282707,0.0003303,69.9998,248.7076,263.3091,217.4394,-0.028127,-0.00863173,0.0,0 STARLINK-6070,1 56802U 23078AM  23338.58334491 -.00863173  00000-0 -28127-1 0  9998,2 56802  69.9998 248.7076 0003303 263.3091 217.4394 15.34282707 29651,6841.189,93.855,465.314,460.794,0.0
56802.0,STARLINK-6070,PAYLOAD,2023-12-04 16:00:01,15.34126779,0.0003262,69.9998,248.4856,259.4905,321.4494,-0.028344,-0.00865337,0.0,0 STARLINK-6070,1 56802U 23078AM  23338.66668981 -.00865337  00000-0 -28344-1 0  9996,2 56802  69.9998 248.4856 0003262 259.4905 321.4494 15.34126779  6050,6841.652,93.864,465.749,461.286,0.0
56802.0,STARLINK-6070,PAYLOAD,2023-12-04 22:00:00,15.33686116,0.0003241,70.0002,247.8197,263.2378,257.7336,-0.031735,-0.00947859,0.0,0 STARLINK-6070,1 56802U 23078AM  23338.91667824 -.00947859  00000-0 -31735-1 0  9997,2 56802  70.0002 247.8197 0003241 263.2378 257.7336 15.33686116  6044,6842.963,93.891,467.046,462.61,0.0
56802.0,STARLINK-6070,PAYLOAD,2023-12-05 06:00:00,15.33008773,0.0003207,69.9998,246.9327,266.0349,294.4045,-0.030839,-0.00905234,0.0,0 STARLINK-6070,1 56802U 23078AM  23339.25001157 -.00905234  00000-0 -30839-1 0  9991,2 56802  69.9998 246.9327 0003207 266.0349 294.4045 15.33008773 29767,6844.978,93.933,469.039,464.648,0.0
56802.0,STARLINK-6070,PAYLOAD,2023-12-05 14:00:01,15.32325749,0.0003281,69.9999,246.0464,259.2361,339.8908,-0.02987,-0.00861714,0.0,0 STARLINK-6070,1 56802U 23078AM  23339.58334491 -.00861714  00000-0 -29870-1 0  9994,2 56802  69.9999 246.0464 0003281 259.2361 339.8908 15.32325749  6032,6847.012,93.975,471.124,466.631,0.0
56802.0,STARLINK-6070,PAYLOAD,2023-12-05 22:00:00,15.3172845,0.0003369,70.0003,245.1612,260.878,16.1261,-0.033692,-0.00946206,0.0,0 STARLINK-6070,1 56802U 23078AM  23339.91667824 -.00946206  00000-0 -33692-1 0  9997,2 56802  70.0003 245.1612 0003369 260.8780  16.1261 15.31728450  6027,6848.792,94.011,472.965,468.35,0.0
56802.0,STARLINK-6070,PAYLOAD,2023-12-06 06:00:00,15.31055452,0.000338,70.0,244.2767,266.801,47.3219,-0.033051,-0.00911881,0.0,0 STARLINK-6070,1 56802U 23078AM  23340.25001157 -.00911881  00000-0 -33051-1 0  9997,2 56802  70.0000 244.2767 0003380 266.8010  47.3219 15.31055452 29917,6850.799,94.053,474.98,470.348,0.0
56802.0,STARLINK-6070,PAYLOAD,2023-12-06 14:00:01,15.30368698,0.0003385,70.0001,243.3933,263.4531,87.0109,-0.031638,-0.00858803,0.0,0 STARLINK-6070,1 56802U 23078AM  23340.58334491 -.00858803  00000-0 -31638-1 0  9996,2 56802  70.0001 243.3933 0003385 263.4531  87.0109 15.30368698  6034,6852.848,94.095,477.033,472.394,0.0
56802.0,STARLINK-6070,PAYLOAD,2023-12-06 22:00:00,15.29774241,0.0003391,70.0004,242.5106,267.1311,118.8642,-0.036058,-0.00964512,0.0,0 STARLINK-6070,1 56802U 23078AM  23340.91667824 -.00964512  00000-0 -36058-1 0  9998,2 56802  70.0004 242.5106 0003391 267.1311 118.8642 15.29774241  6021,6854.624,94.132,478.813,474.164,0.0
56802.0,STARLINK-6070,PAYLOAD,2023-12-07 06:00:02,15.29104422,0.0003273,70.0001,241.6287,271.7951,149.0341,-0.03544,-0.00919625,0.0,0 STARLINK-6070,1 56802U 23078AM  23341.25002315 -.00919625  00000-0 -35440-1 0  9993,2 56802  70.0001 241.6287 0003273 271.7951 149.0341 15.29104422 30069,6856.625,94.173,480.734,476.246,0.0
56802.0,STARLINK-6070,PAYLOAD,2023-12-07 14:00:01,15.28407203,0.000321,70.0003,240.7481,265.3715,189.4554,-0.033282,-0.00850924,0.0,0 STARLINK-6070,1 56802U 23078AM  23341.58335648 -.00850924  00000-0 -33282-1 0  9995,2 56802  70.0003 240.7481 0003210 265.3715 189.4554 15.28407203  5906,6858.71,94.216,482.777,478.374,0.0
56802.0,STARLINK-6070,PAYLOAD,2023-12-08 06:00:00,15.27151709,0.0003086,70.0002,238.9891,271.2407,249.1276,-0.037968,-0.00938926,0.0,0 STARLINK-6070,1 56802U 23078AM  23342.25001157 -.00938926  00000-0 -37968-1 0  9999,2 56802  70.0002 238.9891 0003086 271.2407 249.1276 15.27151709 30217,6862.469,94.293,486.452,482.216,0.0
56802.0,STARLINK-6070,PAYLOAD,2023-12-08 14:00:01,15.26451076,0.0003123,70.0004,238.1111,263.7827,288.2365,-0.035205,-0.00848135,0.0,0 STARLINK-6070,1 56802U 23078AM  23342.58334491 -.00848135  00000-0 -35205-1 0  9999,2 56802  70.0004 238.1111 0003123 263.7827 288.2365 15.26451076  5854,6864.569,94.336,488.577,484.29,0.0
56802.0,STARLINK-6070,PAYLOAD,2023-12-08 22:00:00,15.25850645,0.0002904,70.0006,237.2339,265.0868,317.7698,-0.039869,-0.009471,0.0,0 STARLINK-6070,1 56802U 23078AM  23342.91667824 -.00947100  00000-0 -39869-1 0  9997,2 56802  70.0006 237.2339 0002904 265.0868 317.7698 15.25850645  5901,6866.369,94.374,490.228,486.24,0.0
56802.0,STARLINK-6070,PAYLOAD,2023-12-09 14:00:01,15.24495537,0.000318,70.0005,235.482,266.6668,15.5676,-0.037295,-0.00847116,0.0,0 STARLINK-6070,1 56802U 23078AM  23343.58334491 -.00847116  00000-0 -37295-1 0  9999,2 56802  70.0005 235.4820 0003180 266.6668  15.5676 15.24495537 30425,6870.438,94.457,494.487,490.118,0.0
56802.0,STARLINK-6070,PAYLOAD,2023-12-09 22:00:00,15.23889067,0.0003314,70.0005,234.6076,270.8813,39.8521,-0.042084,-0.00942916,0.0,0 STARLINK-6070,1 56802U 23078AM  23343.91667824 -.00942916  00000-0 -42084-1 0  9991,2 56802  70.0005 234.6076 0003314 270.8813  39.8521 15.23889067  5948,6872.26,94.495,496.403,491.848,0.0
56802.0,STARLINK-6070,PAYLOAD,2023-12-10 06:00:00,15.23245057,0.0003349,70.0003,233.7336,274.2449,64.2089,-0.043425,-0.00953619,0.0,0 STARLINK-6070,1 56802U 23078AM  23344.25001157 -.00953619  00000-0 -43425-1 0  9992,2 56802  70.0003 233.7336 0003349 274.2449  64.2089 15.23245057 30524,6874.197,94.535,498.364,493.76,0.0
56802.0,STARLINK-6070,PAYLOAD,2023-12-10 14:00:01,15.22537927,0.0003379,70.0006,232.8608,268.3212,97.0911,-0.039557,-0.00847556,0.0,0 STARLINK-6070,1 56802U 23078AM  23344.58334491 -.00847556  00000-0 -39557-1 0  9991,2 56802  70.0006 232.8608 0003379 268.3212  97.0911 15.22537927  6007,6876.326,94.579,500.514,495.867,0.0
56802.0,STARLINK-6070,PAYLOAD,2023-12-10 22:00:01,15.219299,0.0003366,70.0007,231.9888,272.6685,118.9586,-0.044475,-0.0094037,0.0,0 STARLINK-6070,1 56802U 23078AM  23344.91668981 -.00940370  00000-0 -44475-1 0  9995,2 56802  70.0007 231.9888 0003366 272.6685 118.9586 15.21929900 30627,6878.157,94.617,502.337,497.707,0.0
56802.0,STARLINK-6070,PAYLOAD,2023-12-11 14:00:01,15.20585187,0.0003278,70.0005,230.2472,269.8155,171.7305,-0.042187,-0.00852876,0.0,0 STARLINK-6070,1 56802U 23078AM  23345.58334491 -.00852876  00000-0 -42187-1 0  9996,2 56802  70.0005 230.2472 0003278 269.8155 171.7305 15.20585187  5697,6882.211,94.7,506.332,501.82,0.0
56802.0,STARLINK-6070,PAYLOAD,2023-12-11 22:00:01,15.19969362,0.0003244,70.0005,229.378,273.5732,191.8443,-0.046852,-0.00935561,0.0,0 STARLINK-6070,1 56802U 23078AM  23345.91668981 -.00935561  00000-0 -46852-1 0  9993,2 56802  70.0005 229.3780 0003244 273.5732 191.8443 15.19969362  5745,6884.07,94.739,508.168,503.702,0.0
56802.0,STARLINK-6070,PAYLOAD,2023-12-12 06:00:00,15.1933272,0.0003201,70.0001,228.5093,276.3254,212.0527,-0.048916,-0.00957084,0.0,0 STARLINK-6070,1 56802U 23078AM  23346.25001157 -.00957084  00000-0 -48916-1 0  9994,2 56802  70.0001 228.5093 0003201 276.3254 212.0527 15.19332720 30820,6885.993,94.778,510.062,505.654,0.0
56802.0,STARLINK-6070,PAYLOAD,2023-12-12 14:00:01,15.18632823,0.0003205,70.0003,227.6417,269.2638,241.3753,-0.045033,-0.00869725,0.0,0 STARLINK-6070,1 56802U 23078AM  23346.58334491 -.00869725  00000-0 -45033-1 0  9991,2 56802  70.0003 227.6417 0003205 269.2638 241.3753 15.18632823  5850,6888.109,94.822,512.181,507.766,0.0
56802.0,STARLINK-6070,PAYLOAD,2023-12-12 22:00:00,15.18009243,0.0003206,70.0002,226.7749,272.718,259.3857,-0.049307,-0.00930502,0.0,0 STARLINK-6070,1 56802U 23078AM  23346.91667824 -.00930502  00000-0 -49307-1 0  9997,2 56802  70.0002 226.7749 0003206 272.7180 259.3857 15.18009243 30934,6889.995,94.861,514.069,509.651,0.0
56802.0,STARLINK-6070,PAYLOAD,2023-12-13 00:00:00,15.17828307,0.0003276,70.0002,226.5583,272.8037,354.549,-0.047662,-0.00897285,0.0,0 STARLINK-6070,1 56802U 23078AM  23347.00001157 -.00897285  00000-0 -47662-1 0  9991,2 56802  70.0002 226.5583 0003276 272.8037 354.5490 15.17828307  5917,6890.542,94.872,514.665,510.15,0.0
56802.0,STARLINK-6070,PAYLOAD,2023-12-13 14:00:01,15.16680166,0.0003217,69.9999,225.0439,267.5371,305.1543,-0.047952,-0.0087506,0.0,0 STARLINK-6070,1 56802U 23078AM  23347.58334491 -.00875060  00000-0 -47952-1 0  9993,2 56802  69.9999 225.0439 0003217 267.5371 305.1543 15.16680166  5830,6894.019,94.944,518.102,513.667,0.0
56802.0,STARLINK-6070,PAYLOAD,2023-12-13 22:00:00,15.1604901,0.0003225,69.9998,224.1796,271.5476,320.2648,-0.051793,-0.009244,0.0,0 STARLINK-6070,1 56802U 23078AM  23347.91667824 -.00924400  00000-0 -51793-1 0  9990,2 56802  69.9998 224.1796 0003225 271.5476 320.2648 15.16049010  5892,6895.933,94.984,520.022,515.574,0.0
56802.0,STARLINK-6070,PAYLOAD,2023-12-14 06:00:00,15.15422056,0.0003237,69.9994,223.3161,272.946,337.194,-0.055281,-0.00965795,0.0,0 STARLINK-6070,1 56802U 23078AM  23348.25001157 -.00965795  00000-0 -55281-1 0  9997,2 56802  69.9994 223.3161 0003237 272.9460 337.1940 15.15422056 31138,6897.835,95.023,521.932,517.467,0.0
